{
  "type": "FeatureCollection",
  "features": [
    {
      "type": "Feature",
      "properties": {
        "norad_id": 36050,
        "name": "COSMOS 2251 DEB",
        "group": "cosmos-2251-debris",
        "lat": 27.59397903804997,
        "lon": -136.2627353887983,
        "alt_km": 564.4897208727016,
        "timestamp": "2025-12-02T08:59:33.111934+00:00",
        "meta_object_name": "COSMOS 2251 DEB",
        "meta_object_id": "1993-036AXM",
        "meta_epoch": "2025-11-29T10:28:15.671136",
        "meta_mean_motion": 15.00734928,
        "meta_eccentricity": 0.00892831,
        "meta_inclination": 74.0316,
        "meta_ra_of_asc_node": 221.1088,
        "meta_arg_of_pericenter": 303.7997,
        "meta_mean_anomaly": 55.471,
        "meta_ephemeris_type": 0,
        "meta_classification_type": "U",
        "meta_norad_cat_id": 36050,
        "meta_element_set_no": 999,
        "meta_rev_at_epoch": 66835,
        "meta_bstar": 0.00061877137,
        "meta_mean_motion_dot": 8.506e-05,
        "meta_mean_motion_ddot": 0,
        "tle_line1": "1 36050U 93036AXM 25333.43629249  .00008506  00000+0  61877-3 0  9990",
        "tle_line2": "2 36050  74.0316 221.1088 0089283 303.7997  55.4710 15.00734928668356"
      },
      "geometry": {
        "type": "Point",
        "coordinates": [
          -136.2627353887983,
          27.59397903804997
        ]
      }
    },
    {
      "type": "Feature",
      "properties": {
        "norad_id": 36053,
        "name": "COSMOS 2251 DEB",
        "group": "cosmos-2251-debris",
        "lat": 47.832233449798586,
        "lon": -26.060492466639978,
        "alt_km": 675.0019252477596,
        "timestamp": "2025-12-02T08:59:33.111944+00:00",
        "meta_object_name": "COSMOS 2251 DEB",
        "meta_object_id": "1993-036AXQ",
        "meta_epoch": "2025-12-01T06:02:04.873920",
        "meta_mean_motion": 14.56926822,
        "meta_eccentricity": 0.0033176,
        "meta_inclination": 73.8721,
        "meta_ra_of_asc_node": 174.7239,
        "meta_arg_of_pericenter": 127.7081,
        "meta_mean_anomaly": 232.7098,
        "meta_ephemeris_type": 0,
        "meta_classification_type": "U",
        "meta_norad_cat_id": 36053,
        "meta_element_set_no": 999,
        "meta_rev_at_epoch": 87277,
        "meta_bstar": 0.0017117,
        "meta_mean_motion_dot": 7.72e-05,
        "meta_mean_motion_ddot": 0,
        "tle_line1": "1 36053U 93036AXQ 25335.25144530  .00007720  00000+0  17117-2 0  9994",
        "tle_line2": "2 36053  73.8721 174.7239 0033176 127.7081 232.7098 14.56926822872773"
      },
      "geometry": {
        "type": "Point",
        "coordinates": [
          -26.060492466639978,
          47.832233449798586
        ]
      }
    },
    {
      "type": "Feature",
      "properties": {
        "norad_id": 36058,
        "name": "COSMOS 2251 DEB",
        "group": "cosmos-2251-debris",
        "lat": -16.510255661045385,
        "lon": -121.91578757670545,
        "alt_km": 670.4250404085196,
        "timestamp": "2025-12-02T08:59:33.111954+00:00",
        "meta_object_name": "COSMOS 2251 DEB",
        "meta_object_id": "1993-036AXV",
        "meta_epoch": "2025-11-30T23:10:11.236512",
        "meta_mean_motion": 14.58588608,
        "meta_eccentricity": 0.00452994,
        "meta_inclination": 74.0241,
        "meta_ra_of_asc_node": 55.8971,
        "meta_arg_of_pericenter": 192.6971,
        "meta_mean_anomaly": 167.3058,
        "meta_ephemeris_type": 0,
        "meta_classification_type": "U",
        "meta_norad_cat_id": 36058,
        "meta_element_set_no": 999,
        "meta_rev_at_epoch": 65939,
        "meta_bstar": 0.00077118146,
        "meta_mean_motion_dot": 3.611e-05,
        "meta_mean_motion_ddot": 0,
        "tle_line1": "1 36058U 93036AXV 25334.96540783  .00003611  00000+0  77118-3 0  9999",
        "tle_line2": "2 36058  74.0241  55.8971 0045299 192.6971 167.3058 14.58588608659396"
      },
      "geometry": {
        "type": "Point",
        "coordinates": [
          -121.91578757670545,
          -16.510255661045385
        ]
      }
    },
    {
      "type": "Feature",
      "properties": {
        "norad_id": 36060,
        "name": "COSMOS 2251 DEB",
        "group": "cosmos-2251-debris",
        "lat": 0.9346788300701477,
        "lon": -105.94595104210032,
        "alt_km": 744.0425816995257,
        "timestamp": "2025-12-02T08:59:33.111964+00:00",
        "meta_object_name": "COSMOS 2251 DEB",
        "meta_object_id": "1993-036AXX",
        "meta_epoch": "2025-12-02T00:39:45.633600",
        "meta_mean_motion": 14.41957589,
        "meta_eccentricity": 0.0014894,
        "meta_inclination": 74.0292,
        "meta_ra_of_asc_node": 254.4297,
        "meta_arg_of_pericenter": 352.6862,
        "meta_mean_anomaly": 7.4074,
        "meta_ephemeris_type": 0,
        "meta_classification_type": "U",
        "meta_norad_cat_id": 36060,
        "meta_element_set_no": 999,
        "meta_rev_at_epoch": 84855,
        "meta_bstar": 0.00041599,
        "meta_mean_motion_dot": 1.339e-05,
        "meta_mean_motion_ddot": 0,
        "tle_line1": "1 36060U 93036AXX 25336.02761150  .00001339  00000+0  41599-3 0  9993",
        "tle_line2": "2 36060  74.0292 254.4297 0014894 352.6862   7.4074 14.41957589848557"
      },
      "geometry": {
        "type": "Point",
        "coordinates": [
          -105.94595104210032,
          0.9346788300701477
        ]
      }
    },
    {
      "type": "Feature",
      "properties": {
        "norad_id": 36061,
        "name": "COSMOS 2251 DEB",
        "group": "cosmos-2251-debris",
        "lat": 45.937824361097846,
        "lon": -178.4833899276025,
        "alt_km": 750.4478915879972,
        "timestamp": "2025-12-02T08:59:33.111975+00:00",
        "meta_object_name": "COSMOS 2251 DEB",
        "meta_object_id": "1993-036AXY",
        "meta_epoch": "2025-11-30T09:29:32.534016",
        "meta_mean_motion": 14.3367716,
        "meta_eccentricity": 0.00369647,
        "meta_inclination": 74.0247,
        "meta_ra_of_asc_node": 22.3548,
        "meta_arg_of_pericenter": 114.2719,
        "meta_mean_anomaly": 246.2301,
        "meta_ephemeris_type": 0,
        "meta_classification_type": "U",
        "meta_norad_cat_id": 36061,
        "meta_element_set_no": 999,
        "meta_rev_at_epoch": 64927,
        "meta_bstar": 0.00028741417,
        "meta_mean_motion_dot": 7.78e-06,
        "meta_mean_motion_ddot": 0,
        "tle_line1": "1 36061U 93036AXY 25334.39551544  .00000778  00000+0  28741-3 0  9996",
        "tle_line2": "2 36061  74.0247  22.3548 0036964 114.2719 246.2301 14.33677160649273"
      },
      "geometry": {
        "type": "Point",
        "coordinates": [
          -178.4833899276025,
          45.937824361097846
        ]
      }
    },
    {
      "type": "Feature",
      "properties": {
        "norad_id": 36073,
        "name": "COSMOS 2251 DEB",
        "group": "cosmos-2251-debris",
        "lat": -1.6564886632372195,
        "lon": 162.0354561467883,
        "alt_km": 788.5999829502971,
        "timestamp": "2025-12-02T08:59:33.111985+00:00",
        "meta_object_name": "COSMOS 2251 DEB",
        "meta_object_id": "1993-036AYL",
        "meta_epoch": "2025-12-01T08:43:32.794464",
        "meta_mean_motion": 14.34928721,
        "meta_eccentricity": 0.00234073,
        "meta_inclination": 74.0321,
        "meta_ra_of_asc_node": 343.4137,
        "meta_arg_of_pericenter": 54.867,
        "meta_mean_anomaly": 305.4671,
        "meta_ephemeris_type": 0,
        "meta_classification_type": "U",
        "meta_norad_cat_id": 36073,
        "meta_element_set_no": 999,
        "meta_rev_at_epoch": 70044,
        "meta_bstar": 0.00025558924,
        "meta_mean_motion_dot": 7.03e-06,
        "meta_mean_motion_ddot": 0,
        "tle_line1": "1 36073U 93036AYL 25335.36357401  .00000703  00000+0  25559-3 0  9995",
        "tle_line2": "2 36073  74.0321 343.4137 0023407  54.8670 305.4671 14.34928721700441"
      },
      "geometry": {
        "type": "Point",
        "coordinates": [
          162.0354561467883,
          -1.6564886632372195
        ]
      }
    },
    {
      "type": "Feature",
      "properties": {
        "norad_id": 36074,
        "name": "COSMOS 2251 DEB",
        "group": "cosmos-2251-debris",
        "lat": -7.9189007161571805,
        "lon": -2.476385592771518,
        "alt_km": 756.9962729437857,
        "timestamp": "2025-12-02T08:59:33.111996+00:00",
        "meta_object_name": "COSMOS 2251 DEB",
        "meta_object_id": "1993-036AYM",
        "meta_epoch": "2025-11-30T08:47:56.269536",
        "meta_mean_motion": 14.43612377,
        "meta_eccentricity": 0.00417412,
        "meta_inclination": 73.9972,
        "meta_ra_of_asc_node": 3.551,
        "meta_arg_of_pericenter": 99.6494,
        "meta_mean_anomaly": 260.9382,
        "meta_ephemeris_type": 0,
        "meta_classification_type": "U",
        "meta_norad_cat_id": 36074,
        "meta_element_set_no": 999,
        "meta_rev_at_epoch": 85731,
        "meta_bstar": 0.00086426668,
        "meta_mean_motion_dot": 2.936e-05,
        "meta_mean_motion_ddot": 0,
        "tle_line1": "1 36074U 93036AYM 25334.36662349  .00002936  00000+0  86427-3 0  9996",
        "tle_line2": "2 36074  73.9972   3.5510 0041741  99.6494 260.9382 14.43612377857313"
      },
      "geometry": {
        "type": "Point",
        "coordinates": [
          -2.476385592771518,
          -7.9189007161571805
        ]
      }
    }
  ]
}